H1 CPF 01  gfz 2022 09 12 12  7552 tandemx   
H2 1003001  6202 36605    2022 09 12 12 59 42 2022 09 17 00 00 42   120 1 1  0 0 0
H9
10 0 59837  19422.000000  0    -917176.213    745627.263   6775277.699
10 0 59837  19542.000000  0     -11006.197    901259.132   6818239.287
10 0 59837  19662.000000  0     897803.837   1025283.280   6741394.668
10 0 59837  19782.000000  0    1792825.814   1115631.728   6546086.694
10 0 59837  19902.000000  0    2657837.855   1171107.724   6235726.934
10 0 59837  20022.000000  0    3477118.502   1191400.519   5815740.530
10 0 59837  20142.000000  0    4235735.300   1177080.146   5293476.163
10 0 59837  20262.000000  0    4919820.051   1129572.401   4678083.385
10 0 59837  20382.000000  0    5516830.013   1051114.438   3980359.841
10 0 59837  20502.000000  0    6015788.394    944691.928   3212564.760
10 0 59837  20622.000000  0    6407495.468    813958.596   2388203.212
10 0 59837  20742.000000  0    6684707.164    663139.529   1521787.650
10 0 59837  20862.000000  0    6842278.157    496921.729    628577.131
10 0 59837  20982.000000  0    6877262.346    320333.253   -275698.380
10 0 59837  21102.000000  0    6788970.264    138614.574  -1175124.313
10 0 59837  21222.000000  0    6578979.645    -42914.288  -2053890.624
10 0 59837  21342.000000  0    6251100.297   -218987.900  -2896576.907
10 0 59837  21462.000000  0    5811295.575   -384527.326  -3688427.711
10 0 59837  21582.000000  0    5267561.901   -534766.082  -4415612.924
10 0 59837  21702.000000  0    4629769.799   -665366.644  -5065466.923
10 0 59837  21822.000000  0    3909473.108   -772525.148  -5626702.518
10 0 59837  21942.000000  0    3119690.510   -853063.434  -6089598.616
10 0 59837  22062.000000  0    2274663.109   -904505.662  -6446158.042
10 0 59837  22182.000000  0    1389594.702   -925137.112  -6690233.746
10 0 59837  22302.000000  0     480379.830   -914046.666  -6817624.401
10 0 59837  22422.000000  0    -436677.831   -871150.779  -6826139.225
10 0 59837  22542.000000  0   -1345151.075   -797198.965  -6715630.933
10 0 59837  22662.000000  0   -2228776.706   -693760.967  -6487998.523
10 0 59837  22782.000000  0   -3071740.176   -563195.455  -6147156.925
10 0 59837  22902.000000  0   -3858952.131   -408601.226  -5698977.245
10 0 59837  23022.000000  0   -4576317.772   -233751.047  -5151197.136
10 0 59837  23142.000000  0   -5210991.468    -43009.186  -4513297.983
10 0 59837  23262.000000  0   -5751612.911    158765.524  -3796353.075
10 0 59837  23382.000000  0   -6188521.373    366330.800  -3012845.121
10 0 59837  23502.000000  0   -6513940.744    574182.984  -2176455.425
10 0 59837  23622.000000  0   -6722131.110    776688.523  -1301827.825
10 0 59837  23742.000000  0   -6809503.772    968220.327   -404311.044
10 0 59837  23862.000000  0   -6774692.509   1143296.409    500317.556
10 0 59837  23982.000000  0   -6618579.868   1296717.123   1396135.701
10 0 59837  24102.000000  0   -6344280.374   1423697.902   2267364.804
10 0 59837  24222.000000  0   -5957078.059   1519993.432   3098657.473
10 0 59837  24342.000000  0   -5464319.414   1582009.775   3875376.316
10 0 59837  24462.000000  0   -4875265.246   1606901.780   4583856.807
10 0 59837  24582.000000  0   -4200906.953   1592653.667   5211649.238
10 0 59837  24702.000000  0   -3453752.433   1538140.986   5747736.207
10 0 59837  24822.000000  0   -2647586.273   1443172.754   6182723.417
10 0 59837  24942.000000  0   -1797207.562   1308513.339   6509000.447
10 0 59837  25062.000000  0    -918151.948   1135882.630   6720867.007
10 0 59837  25182.000000  0     -26405.628    927935.529   6814625.423
10 0 59837  25302.000000  0     861884.887    688220.968   6788640.655
10 0 59837  25422.000000  0    1730703.945    421121.283   6643366.874
10 0 59837  25542.000000  0    2564454.219    131772.791   6381340.251
10 0 59837  25662.000000  0    3348236.794   -174031.702   6007138.734
10 0 59837  25782.000000  0    4068119.900   -489956.970   5527306.782
10 0 59837  25902.000000  0    4711390.409   -809253.957   4950246.549
10 0 59837  26022.000000  0    5266784.844  -1124900.774   4286076.950
10 0 59837  26142.000000  0    5724694.869  -1429753.241   3546460.610
10 0 59837  26262.000000  0    6077343.241  -1716702.335   2744401.354
10 0 59837  26382.000000  0    6318925.101  -1978834.338   1894014.687
10 0 59837  26502.000000  0    6445711.063  -2209590.181   1010276.004
10 0 59837  26622.000000  0    6456109.565  -2402920.104    108750.556
10 0 59837  26742.000000  0    6350685.760  -2553429.297   -794689.344
10 0 59837  26862.000000  0    6132136.851  -2656510.465  -1684153.092
10 0 59837  26982.000000  0    5805223.360  -2708460.730  -2544019.819
10 0 59837  27102.000000  0    5376659.958  -2706578.660  -3359218.590
10 0 59837  27222.000000  0    4854969.340  -2649240.156  -4115495.111
10 0 59837  27342.000000  0    4250303.750  -2535952.237  -4799660.567
10 0 59837  27462.000000  0    3574237.056  -2367382.944  -5399817.961
10 0 59837  27582.000000  0    2839534.117  -2145366.844  -5905560.093
10 0 59837  27702.000000  0    2059905.741  -1872887.553  -6308139.128
10 0 59837  27822.000000  0    1249751.054  -1554037.401  -6600608.496
10 0 59837  27942.000000  0     423891.358  -1193954.298  -6777931.666
10 0 59837  28062.000000  0    -402697.194   -798739.040  -6837059.193
10 0 59837  28182.000000  0   -1215149.087   -375353.467  -6776974.874
10 0 59837  28302.000000  0   -1998970.622     68499.334  -6598711.426
10 0 59837  28422.000000  0   -2740292.443    524511.628  -6305333.678
10 0 59837  28542.000000  0   -3426109.383    983921.754  -5901891.719
10 0 59837  28662.000000  0   -4044506.679   1437677.786  -5395344.152
10 0 59837  28782.000000  0   -4584869.348   1876611.383  -4794449.681
10 0 59837  28902.000000  0   -5038070.075   2291620.920  -4109627.390
10 0 59837  29022.000000  0   -5396631.004   2673858.166  -3352785.516
10 0 59837  29142.000000  0   -5654856.672   3014914.877  -2537122.847
10 0 59837  29262.000000  0   -5808935.556   3307006.420  -1676903.579
10 0 59837  29382.000000  0   -5857005.607   3543147.637   -787208.312
10 0 59837  29502.000000  0   -5799181.098   3717315.716    116333.621
10 0 59837  29622.000000  0   -5637540.957   3824596.139   1017825.584
10 0 59837  29742.000000  0   -5376075.403   3861306.533   1901393.000
10 0 59837  29862.000000  0   -5020593.178   3825095.844   2751471.676
10 0 59837  29982.000000  0   -4578593.894   3715016.575   3553089.715
10 0 59837  30102.000000  0   -4059106.729   3531567.805   4292138.336
10 0 59837  30222.000000  0   -3472500.564   3276707.448   4955623.309
10 0 59837  30342.000000  0   -2830271.265   2953835.924   5531894.398
10 0 59837  30462.000000  0   -2144809.463   2567749.902   6010847.845
10 0 59837  30582.000000  0   -1429156.056   2124567.966   6384099.285
10 0 59837  30702.000000  0    -696749.473   1631629.840   6645123.550
10 0 59837  30822.000000  0      38827.097   1097372.326   6789361.638
10 0 59837  30942.000000  0     764097.343    531183.375   6814295.818
10 0 59837  31062.000000  0    1465937.923    -56762.784   6719490.359
10 0 59837  31182.000000  0    2131814.796   -655687.645   6506599.186
10 0 59837  31302.000000  0    2750006.655  -1254405.613   6179339.391
10 0 59837  31422.000000  0    3309812.750  -1841531.970   5743431.228
10 0 59837  31542.000000  0    3801741.659  -2405699.894   5206503.583
10 0 59837  31662.000000  0    4217676.484  -2935781.146   4577966.032
10 0 59837  31782.000000  0    4551014.240  -3421108.171   3868849.646
10 0 59837  31902.000000  0    4796776.721  -3851692.412   3091616.819
10 0 59837  32022.000000  0    4951690.357  -4218433.366   2259942.449
10 0 59837  32142.000000  0    5014231.080  -4513312.874   1388469.993
10 0 59837  32262.000000  0    4984633.596  -4729570.666    492548.587
10 0 59837  32382.000000  0    4864865.233  -4861856.859   -412044.484
10 0 59837  32502.000000  0    4658564.579  -4906356.442  -1309390.211
10 0 59837  32622.000000  0    4370946.336  -4860882.500  -2183717.101
10 0 59837  32742.000000  0    4008674.726  -4724936.310  -3019685.580
10 0 59837  32862.000000  0    3579709.224  -4499732.909  -3802661.806
10 0 59837  32982.000000  0    3093127.551  -4188192.395  -4518975.142
10 0 59837  33102.000000  0    2558929.930  -3794896.915  -5156154.777
10 0 59837  33222.000000  0    1987829.533  -3326015.532  -5703139.402
10 0 59837  33342.000000  0    1391036.605  -2789201.220  -6150458.711
10 0 59837  33462.000000  0     780038.658  -2193461.739  -6490387.436
10 0 59837  33582.000000  0     166380.444  -1549004.785  -6717068.501
10 0 59837  33702.000000  0    -438550.714   -867061.763  -6826603.178
10 0 59837  33822.000000  0   -1023730.649   -159694.129  -6817109.965
10 0 59837  33942.000000  0   -1578694.336    560415.147  -6688752.903
10 0 59837  34062.000000  0   -2093718.732   1280182.931  -6443738.628
10 0 59837  34182.000000  0   -2559989.086   1986357.671  -6086282.592
10 0 59837  34302.000000  0   -2969748.234   2665757.621  -5622545.024
10 0 59837  34422.000000  0   -3316426.513   3305514.240  -5060536.162
10 0 59837  34542.000000  0   -3594750.826   3893316.064  -4409989.823
10 0 59837  34662.000000  0   -3800829.470   4417648.314  -3682204.734
10 0 59837  34782.000000  0   -3932209.242   4868022.460  -2889856.332
10 0 59837  34902.000000  0   -3987905.243   5235191.514  -2046782.948
10 0 59837  35022.000000  0   -3968403.238   5511346.629  -1167747.560
10 0 59837  35142.000000  0   -3875632.152   5690290.414   -268177.769
10 0 59837  35262.000000  0   -3712906.056   5767578.594    636110.533
10 0 59837  35382.000000  0   -3484838.895   5740628.413   1529198.634
10 0 59837  35502.000000  0   -3197231.327   5608790.754   2395355.700
10 0 59837  35622.000000  0   -2856932.227   5373380.735   3219326.090
10 0 59837  35742.000000  0   -2471680.577   5037667.834   3986604.396
10 0 59837  35862.000000  0   -2049931.878   4606827.963   4683694.995
99
